[{"OBJECT_NAME":"SHIYAN-6 01 (SY-6 01)","OBJECT_ID":"2018-094B","EPOCH":"2026-03-09T23:04:36.967872","MEAN_MOTION":15.28649156,"ECCENTRICITY":0.00144834,"INCLINATION":97.3669,"RA_OF_ASC_NODE":84.0964,"ARG_OF_PERICENTER":135.6758,"MEAN_ANOMALY":224.5644,"EPHEMERIS_TYPE":0,"CLASSIFICATION_TYPE":"U","NORAD_CAT_ID":43711,"ELEMENT_SET_NO":999,"REV_AT_EPOCH":40632,"BSTAR":0.00024768444,"MEAN_MOTION_DOT":6.847e-5,"MEAN_MOTION_DDOT":0},{"OBJECT_NAME":"STARLINK-34766","OBJECT_ID":"2025-263W","EPOCH":"2026-03-09T04:02:26.075904","MEAN_MOTION":15.27571596,"ECCENTRICITY":0.00013711,"INCLINATION":43.0014,"RA_OF_ASC_NODE":353.2552,"ARG_OF_PERICENTER":268.5653,"MEAN_ANOMALY":91.5042,"EPHEMERIS_TYPE":0,"CLASSIFICATION_TYPE":"U","NORAD_CAT_ID":66505,"ELEMENT_SET_NO":999,"REV_AT_EPOCH":1882,"BSTAR":0.0012252695,"MEAN_MOTION_DOT":0.000336,"MEAN_MOTION_DDOT":0}]
